SPAWAR-CAL-R            
1 43776U 18099U   26067.65115975  .00003570  00000+0  25336-3 0  9990
2 43776  97.4524 111.5817 0019701 348.9052  11.1737 15.05212097396878
STARLINK-4268           
1 53183U 22083BD  26068.46351894 -.00000550  00000+0 -16449-4 0  9996
2 53183  53.2166 130.0462 0001490  87.0971 273.0192 15.08833641201801
